[{"OBJECT_NAME":"STARLINK-30761","OBJECT_ID":"2023-162S","EPOCH":"2026-03-09T22:00:01.999584","MEAN_MOTION":15.22487604,"ECCENTRICITY":0.00012558,"INCLINATION":43.0005,"RA_OF_ASC_NODE":131.2641,"ARG_OF_PERICENTER":271.7524,"MEAN_ANOMALY":352.0491,"EPHEMERIS_TYPE":0,"CLASSIFICATION_TYPE":"U","NORAD_CAT_ID":58134,"ELEMENT_SET_NO":999,"REV_AT_EPOCH":577,"BSTAR":0.050104307,"MEAN_MOTION_DOT":0.01299241,"MEAN_MOTION_DDOT":0},{"OBJECT_NAME":"FENGYUN 1C DEB","OBJECT_ID":"1999-025CUZ","EPOCH":"2026-03-07T03:33:19.659744","MEAN_MOTION":15.49361115,"ECCENTRICITY":0.0121693,"INCLINATION":97.0067,"RA_OF_ASC_NODE":319.8074,"ARG_OF_PERICENTER":141.5541,"MEAN_ANOMALY":219.4462,"EPHEMERIS_TYPE":0,"CLASSIFICATION_TYPE":"U","NORAD_CAT_ID":32203,"ELEMENT_SET_NO":999,"REV_AT_EPOCH":76401,"BSTAR":0.00044112138,"MEAN_MOTION_DOT":0.00032745,"MEAN_MOTION_DDOT":0}]
